[{"OBJECT_NAME":"ONEWEB-0634","OBJECT_ID":"2023-043AF","EPOCH":"2026-05-22T06:56:43.771200","MEAN_MOTION":13.15550001,"ECCENTRICITY":0.0001931,"INCLINATION":87.8987,"RA_OF_ASC_NODE":264.39,"ARG_OF_PERICENTER":110.6962,"MEAN_ANOMALY":249.4376,"EPHEMERIS_TYPE":0,"CLASSIFICATION_TYPE":"U","NORAD_CAT_ID":56075,"ELEMENT_SET_NO":999,"REV_AT_EPOCH":15299,"BSTAR":-0.00019084,"MEAN_MOTION_DOT":-5.9e-07,"MEAN_MOTION_DDOT":0.0},{"OBJECT_NAME":"ONEWEB-0635","OBJECT_ID":"2023-043AG","EPOCH":"2026-05-22T06:49:54.794208","MEAN_MOTION":13.15548589,"ECCENTRICITY":0.0002106,"INCLINATION":87.8997,"RA_OF_ASC_NODE":264.3512,"ARG_OF_PERICENTER":95.8351,"MEAN_ANOMALY":264.302,"EPHEMERIS_TYPE":0,"CLASSIFICATION_TYPE":"U","NORAD_CAT_ID":56076,"ELEMENT_SET_NO":999,"REV_AT_EPOCH":15302,"BSTAR":-0.00012063,"MEAN_MOTION_DOT":-3.3e-07,"MEAN_MOTION_DDOT":0.0},{"OBJECT_NAME":"ONEWEB-0636","OBJECT_ID":"2023-043AH","EPOCH":"2026-05-22T06:38:29.632704","MEAN_MOTION":13.1554935,"ECCENTRICITY":0.0002086,"INCLINATION":87.899,"RA_OF_ASC_NODE":264.3611,"ARG_OF_PERICENTER":97.2869,"MEAN_ANOMALY":262.8498,"EPHEMERIS_TYPE":0,"CLASSIFICATION_TYPE":"U","NORAD_CAT_ID":56077,"ELEMENT_SET_NO":999,"REV_AT_EPOCH":15300,"BSTAR":3.2694e-05,"MEAN_MOTION_DOT":2.5e-07,"MEAN_MOTION_DDOT":0.0},{"OBJECT_NAME":"ONEWEB-0637","OBJECT_ID":"2023-043AJ","EPOCH":"2026-05-22T01:00:47.881440","MEAN_MOTION":13.15549291,"ECCENTRICITY":0.0002211,"INCLINATION":87.8986,"RA_OF_ASC_NODE":264.4253,"ARG_OF_PERICENTER":104.9675,"MEAN_ANOMALY":255.17,"EPHEMERIS_TYPE":0,"CLASSIFICATION_TYPE":"U","NORAD_CAT_ID":56078,"ELEMENT_SET_NO":999,"REV_AT_EPOCH":15299,"BSTAR":-4.0001e-05,"MEAN_MOTION_DOT":-2e-08,"MEAN_MOTION_DDOT":0.0},{"OBJECT_NAME":"ONEWEB-0647","OBJECT_ID":"2023-043AK","EPOCH":"2026-05-22T00:53:57.100416","MEAN_MOTION":13.15547056,"ECCENTRICITY":0.0001938,"INCLINATION":87.8988,"RA_OF_ASC_NODE":264.4386,"ARG_OF_PERICENTER":95.1106,"MEAN_ANOMALY":265.0245,"EPHEMERIS_TYPE":0,"CLASSIFICATION_TYPE":"U","NORAD_CAT_ID":56079,"ELEMENT_SET_NO":999,"REV_AT_EPOCH":15298,"BSTAR":1.7866e-05,"MEAN_MOTION_DOT":2e-07,"MEAN_MOTION_DDOT":0.0},{"OBJECT_NAME":"ONEWEB-0651","OBJECT_ID":"2023-043AL","EPOCH":"2026-05-22T06:15:40.331808","MEAN_MOTION":13.15550119,"ECCENTRICITY":0.0002157,"INCLINATION":87.8986,"RA_OF_ASC_NODE":264.3878,"ARG_OF_PERICENTER":100.176,"MEAN_ANOMALY":259.9614,"EPHEMERIS_TYPE":0,"CLASSIFICATION_TYPE":"U","NORAD_CAT_ID":56080,"ELEMENT_SET_NO":999,"REV_AT_EPOCH":15421,"BSTAR":0.00059356,"MEAN_MOTION_DOT":2.36e-06,"MEAN_MOTION_DDOT":0.0},{"OBJECT_NAME":"ONEWEB-0718","OBJECT_ID":"2023-043AM","EPOCH":"2026-05-22T02:29:47.971680","MEAN_MOTION":13.15549758,"ECCENTRICITY":0.0001759,"INCLINATION":87.8986,"RA_OF_ASC_NODE":264.3998,"ARG_OF_PERICENTER":116.0636,"MEAN_ANOMALY":244.0676,"EPHEMERIS_TYPE":0,"CLASSIFICATION_TYPE":"U","NORAD_CAT_ID":56081,"ELEMENT_SET_NO":999,"REV_AT_EPOCH":15300,"BSTAR":0.00039524,"MEAN_MOTION_DOT":1.62e-06,"MEAN_MOTION_DDOT":0.0},{"OBJECT_NAME":"ONEWEB-0561","OBJECT_ID":"2023-068A","EPOCH":"2026-05-22T03:17:44.429856","MEAN_MOTION":13.20772932,"ECCENTRICITY":0.0002175,"INCLINATION":87.9171,"RA_OF_ASC_NODE":279.6373,"ARG_OF_PERICENTER":89.6074,"MEAN_ANOMALY":270.5308,"EPHEMERIS_TYPE":0,"CLASSIFICATION_TYPE":"U","NORAD_CAT_ID":56710,"ELEMENT_SET_NO":999,"REV_AT_EPOCH":14606,"BSTAR":-0.00013477,"MEAN_MOTION_DOT":-4.2e-07,"MEAN_MOTION_DDOT":0.0},{"OBJECT_NAME":"ONEWEB-0668","OBJECT_ID":"2023-068B","EPOCH":"2026-05-22T05:02:19.806144","MEAN_MOTION":13.16593842,"ECCENTRICITY":0.0002229,"INCLINATION":87.9113,"RA_OF_ASC_NODE":233.9288,"ARG_OF_PERICENTER":114.442,"MEAN_ANOMALY":245.6943,"EPHEMERIS_TYPE":0,"CLASSIFICATION_TYPE":"U","NORAD_CAT_ID":56711,"ELEMENT_SET_NO":999,"REV_AT_EPOCH":14836,"BSTAR":-0.00052308,"MEAN_MOTION_DOT":-1.87e-06,"MEAN_MOTION_DDOT":0.0},{"OBJECT_NAME":"ONEWEB-0676","OBJECT_ID":"2023-068C","EPOCH":"2026-05-22T05:13:45.441984","MEAN_MOTION":13.16595121,"ECCENTRICITY":0.0002312,"INCLINATION":87.9106,"RA_OF_ASC_NODE":233.9338,"ARG_OF_PERICENTER":96.7053,"MEAN_ANOMALY":263.4341,"EPHEMERIS_TYPE":0,"CLASSIFICATION_TYPE":"U","NORAD_CAT_ID":56712,"ELEMENT_SET_NO":999,"REV_AT_EPOCH":14828,"BSTAR":6.1599e-05,"MEAN_MOTION_DOT":3.6e-07,"MEAN_MOTION_DDOT":0.0},{"OBJECT_NAME":"ONEWEB-0677","OBJECT_ID":"2023-068D","EPOCH":"2026-05-22T03:00:46.818432","MEAN_MOTION":13.20771968,"ECCENTRICITY":0.0002302,"INCLINATION":87.9173,"RA_OF_ASC_NODE":279.6315,"ARG_OF_PERICENTER":102.6052,"MEAN_ANOMALY":257.5339,"EPHEMERIS_TYPE":0,"CLASSIFICATION_TYPE":"U","NORAD_CAT_ID":56713,"ELEMENT_SET_NO":999,"REV_AT_EPOCH":14636,"BSTAR":0.00012706000000000002,"MEAN_MOTION_DOT":6.5e-07,"MEAN_MOTION_DDOT":0.0},{"OBJECT_NAME":"ONEWEB-0678","OBJECT_ID":"2023-068E","EPOCH":"2026-05-22T07:12:41.783040","MEAN_MOTION":13.15549932,"ECCENTRICITY":0.0001787,"INCLINATION":87.8997,"RA_OF_ASC_NODE":264.3498,"ARG_OF_PERICENTER":92.3417,"MEAN_ANOMALY":267.7918,"EPHEMERIS_TYPE":0,"CLASSIFICATION_TYPE":"U","NORAD_CAT_ID":56714,"ELEMENT_SET_NO":999,"REV_AT_EPOCH":14588,"BSTAR":-0.00026845000000000005,"MEAN_MOTION_DOT":-8.8e-07,"MEAN_MOTION_DDOT":0.0},{"OBJECT_NAME":"ONEWEB-0679","OBJECT_ID":"2023-068F","EPOCH":"2026-05-22T06:03:53.723232","MEAN_MOTION":13.16596572,"ECCENTRICITY":0.0002549,"INCLINATION":87.9113,"RA_OF_ASC_NODE":233.9185,"ARG_OF_PERICENTER":107.7417,"MEAN_ANOMALY":252.3992,"EPHEMERIS_TYPE":0,"CLASSIFICATION_TYPE":"U","NORAD_CAT_ID":56715,"ELEMENT_SET_NO":999,"REV_AT_EPOCH":14831,"BSTAR":0.00030317,"MEAN_MOTION_DOT":1.29e-06,"MEAN_MOTION_DDOT":0.0},{"OBJECT_NAME":"ONEWEB-0680","OBJECT_ID":"2023-068G","EPOCH":"2026-05-22T01:21:07.027776","MEAN_MOTION":13.21823751,"ECCENTRICITY":0.0002348,"INCLINATION":87.9261,"RA_OF_ASC_NODE":249.1684,"ARG_OF_PERICENTER":113.6536,"MEAN_ANOMALY":246.4845,"EPHEMERIS_TYPE":0,"CLASSIFICATION_TYPE":"U","NORAD_CAT_ID":56716,"ELEMENT_SET_NO":999,"REV_AT_EPOCH":14764,"BSTAR":4.3753e-05,"MEAN_MOTION_DOT":3.1e-07,"MEAN_MOTION_DDOT":0.0},{"OBJECT_NAME":"ONEWEB-0681","OBJECT_ID":"2023-068H","EPOCH":"2026-05-22T06:20:15.803520","MEAN_MOTION":13.2182509,"ECCENTRICITY":0.0002819,"INCLINATION":87.9257,"RA_OF_ASC_NODE":249.1296,"ARG_OF_PERICENTER":87.8247,"MEAN_ANOMALY":272.321,"EPHEMERIS_TYPE":0,"CLASSIFICATION_TYPE":"U","NORAD_CAT_ID":56717,"ELEMENT_SET_NO":999,"REV_AT_EPOCH":14766,"BSTAR":0.00017422000000000002,"MEAN_MOTION_DOT":8.5e-07,"MEAN_MOTION_DDOT":0.0},{"OBJECT_NAME":"ONEWEB-0682","OBJECT_ID":"2023-068J","EPOCH":"2026-05-22T07:46:56.415648","MEAN_MOTION":13.15547427,"ECCENTRICITY":0.0002221,"INCLINATION":87.8995,"RA_OF_ASC_NODE":264.3466,"ARG_OF_PERICENTER":112.6214,"MEAN_ANOMALY":247.5152,"EPHEMERIS_TYPE":0,"CLASSIFICATION_TYPE":"U","NORAD_CAT_ID":56718,"ELEMENT_SET_NO":999,"REV_AT_EPOCH":14605,"BSTAR":0.00048080000000000003,"MEAN_MOTION_DOT":1.94e-06,"MEAN_MOTION_DDOT":0.0}]