ONEWEB-0634             
1 56075U 23043AF  26142.28939550 -.00000059  00000+0 -19084-3 0  9991
2 56075  87.8987 264.3900 0001931 110.6962 249.4376 13.15550001152997
ONEWEB-0635             
1 56076U 23043AG  26142.28466197 -.00000033  00000+0 -12063-3 0  9996
2 56076  87.8997 264.3512 0002106  95.8351 264.3020 13.15548589153024
ONEWEB-0636             
1 56077U 23043AH  26142.27673186  .00000025  00000+0  32694-4 0  9996
2 56077  87.8990 264.3611 0002086  97.2869 262.8498 13.15549350153002
ONEWEB-0637             
1 56078U 23043AJ  26142.04222085 -.00000002  00000+0 -40001-4 0  9998
2 56078  87.8986 264.4253 0002211 104.9675 255.1700 13.15549291152994
ONEWEB-0647             
1 56079U 23043AK  26142.03746644  .00000020  00000+0  17866-4 0  9991
2 56079  87.8988 264.4386 0001938  95.1106 265.0245 13.15547056152989
ONEWEB-0651             
1 56080U 23043AL  26142.26088347  .00000236  00000+0  59356-3 0  9995
2 56080  87.8986 264.3878 0002157 100.1760 259.9614 13.15550119154215
ONEWEB-0718             
1 56081U 23043AM  26142.10402745  .00000162  00000+0  39524-3 0  9994
2 56081  87.8986 264.3998 0001759 116.0636 244.0676 13.15549758153000
ONEWEB-0561             
1 56710U 23068A   26142.13731979 -.00000042  00000+0 -13477-3 0  9995
2 56710  87.9171 279.6373 0002175  89.6074 270.5308 13.20772932146068
ONEWEB-0668             
1 56711U 23068B   26142.20995146 -.00000187  00000+0 -52308-3 0  9998
2 56711  87.9113 233.9288 0002229 114.4420 245.6943 13.16593842148364
ONEWEB-0676             
1 56712U 23068C   26142.21788706  .00000036  00000+0  61599-4 0  9996
2 56712  87.9106 233.9338 0002312  96.7053 263.4341 13.16595121148283
ONEWEB-0677             
1 56713U 23068D   26142.12554188  .00000065  00000+0  12706-3 0  9999
2 56713  87.9173 279.6315 0002302 102.6052 257.5339 13.20771968146363
ONEWEB-0678             
1 56714U 23068E   26142.30048360 -.00000088  00000+0 -26845-3 0  9996
2 56714  87.8997 264.3498 0001787  92.3417 267.7918 13.15549932145886
ONEWEB-0679             
1 56715U 23068F   26142.25270513  .00000129  00000+0  30317-3 0  9991
2 56715  87.9113 233.9185 0002549 107.7417 252.3992 13.16596572148317
ONEWEB-0680             
1 56716U 23068G   26142.05633134  .00000031  00000+0  43753-4 0  9993
2 56716  87.9261 249.1684 0002348 113.6536 246.4845 13.21823751147644
ONEWEB-0681             
1 56717U 23068H   26142.26407180  .00000085  00000+0  17422-3 0  9999
2 56717  87.9257 249.1296 0002819  87.8247 272.3210 13.21825090147667
ONEWEB-0682             
1 56718U 23068J   26142.32426407  .00000194  00000+0  48080-3 0  9995
2 56718  87.8995 264.3466 0002221 112.6214 247.5152 13.15547427146051
